NORAD_CAT_ID,OBJECT_NAME,OBJECT_TYPE,EPOCH,MEAN_MOTION,ECCENTRICITY,INCLINATION,RA_OF_ASC_NODE,ARG_OF_PERICENTER,MEAN_ANOMALY,BSTAR,MEAN_MOTION_DOT,MEAN_MOTION_DDOT,TLE_LINE0,TLE_LINE1,TLE_LINE2,SEMIMAJOR_AXIS,PERIOD,APOGEE,PERIGEE,DECAYED
55395.0,STARLINK-5274,PAYLOAD,2024-05-02 07:32:00,14.98317036,0.0003078,70.0007,329.7173,274.2714,85.8093,-0.0001304,-1.648e-05,0.0,0 STARLINK-5274,1 55395U 23014E   24123.31389378 -.00001648  00000-0 -13040-3 0  9993,2 55395  70.0007 329.7173 0003078 274.2714  85.8093 14.98317036 69808,6950.233,96.108,574.237,569.959,0.0
55395.0,STARLINK-5274,PAYLOAD,2024-05-02 13:56:33,14.98306193,0.0002933,69.9993,329.0468,269.4031,90.6792,-0.00018584,-2.308e-05,0.0,0 STARLINK-5274,1 55395U 23014E   24123.58094629 -.00002308  00000-0 -18584-3 0  9996,2 55395  69.9993 329.0468 0002933 269.4031  90.6792 14.98306193 70787,6950.267,96.109,574.17,570.093,0.0
55395.0,STARLINK-5274,PAYLOAD,2024-05-02 20:21:04,14.9832613,0.0002833,69.9991,328.3727,270.2572,89.8263,4.3821e-05,4.3e-06,0.0,0 STARLINK-5274,1 55395U 23014E   24123.84797062  .00000430  00000-0  43821-4 0  9991,2 55395  69.9991 328.3727 0002833 270.2572  89.8263 14.98326130 69889,6950.205,96.107,574.039,570.101,0.0
55395.0,STARLINK-5274,PAYLOAD,2024-05-03 13:58:34,14.98314021,0.0002583,69.9991,326.5228,270.8322,89.2541,8.7565e-05,9.52e-06,0.0,0 STARLINK-5274,1 55395U 23014E   24124.58234251  .00000952  00000-0  87565-4 0  9991,2 55395  69.9991 326.5228 0002583 270.8322  89.2541 14.98314021 70933,6950.242,96.108,573.903,570.312,0.0
55395.0,STARLINK-5274,PAYLOAD,2024-05-03 20:23:05,14.98321161,0.0002631,70.0003,325.8505,265.1254,94.9605,0.00029237,3.396e-05,0.0,0 STARLINK-5274,1 55395U 23014E   24124.84937321  .00003396  00000-0  29237-3 0  9994,2 55395  70.0003 325.8505 0002631 265.1254  94.9605 14.98321161 70033,6950.22,96.108,573.914,570.257,0.0
55395.0,STARLINK-5274,PAYLOAD,2024-05-04 12:24:25,14.98343966,0.0002948,69.9986,324.1639,274.2395,85.8427,0.00016305,1.854e-05,0.0,0 STARLINK-5274,1 55395U 23014E   24125.51696694  .00001854  00000-0  16305-3 0  9993,2 55395  69.9986 324.1639 0002948 274.2395  85.8427 14.98343966 70137,6950.15,96.106,574.064,569.966,0.0
55395.0,STARLINK-5274,PAYLOAD,2024-05-05 12:26:26,14.98347448,0.0003012,69.9987,321.6391,270.6743,89.4071,9.5841e-05,1.051e-05,0.0,0 STARLINK-5274,1 55395U 23014E   24126.51835985  .00001051  00000-0  95841-4 0  9994,2 55395  69.9987 321.6391 0003012 270.6743  89.4071 14.98347448 70285,6950.139,96.106,574.097,569.911,0.0
55395.0,STARLINK-5274,PAYLOAD,2024-05-05 14:02:34,14.98347408,0.0003015,69.9987,321.4707,270.5966,89.4847,9.2895e-05,1.016e-05,0.0,0 STARLINK-5274,1 55395U 23014E   24126.58511917  .00001016  00000-0  92895-4 0  9994,2 55395  69.9987 321.4707 0003015 270.5966  89.4847 14.98347408 71236,6950.139,96.106,574.1,569.909,0.0
55395.0,STARLINK-5274,PAYLOAD,2024-05-05 22:03:14,14.98349251,0.0003024,69.9986,320.6293,269.1457,90.9356,0.00010037,1.105e-05,0.0,0 STARLINK-5274,1 55395U 23014E   24126.91891349  .00001105  00000-0  10037-3 0  9997,2 55395  69.9986 320.6293 0003024 269.1457  90.9356 14.98349251 71280,6950.133,96.106,574.1,569.897,0.0
55395.0,STARLINK-5274,PAYLOAD,2024-05-06 14:04:34,14.98347319,0.0002888,69.9989,318.9458,268.0607,92.0222,-3.4678e-05,-5.07e-06,0.0,0 STARLINK-5274,1 55395U 23014E   24127.58651117 -.00000507  00000-0 -34678-4 0  9993,2 55395  69.9989 318.9458 0002888 268.0607  92.0222 14.98347319 71387,6950.139,96.106,574.012,569.997,0.0
55395.0,STARLINK-5274,PAYLOAD,2024-05-06 20:29:06,14.98343898,0.000294,69.9989,318.2723,268.145,91.9372,-7.5489e-05,-9.94e-06,0.0,0 STARLINK-5274,1 55395U 23014E   24127.85355066 -.00000994  00000-0 -75489-4 0  9992,2 55395  69.9989 318.2723 0002940 268.1450  91.9372 14.98343898 70483,6950.15,96.106,574.058,569.972,0.0
55395.0,STARLINK-5274,PAYLOAD,2024-05-06 22:05:14,14.98344172,0.0002934,69.9989,318.104,268.2214,91.8609,-7.1715e-05,-9.49e-06,0.0,0 STARLINK-5274,1 55395U 23014E   24127.92030969 -.00000949  00000-0 -71715-4 0  9990,2 55395  69.9989 318.1040 0002934 268.2214  91.8609 14.98344172 71430,6950.149,96.106,574.053,569.975,0.0
55395.0,STARLINK-5274,PAYLOAD,2024-05-07 12:30:27,14.98333182,0.0002915,69.9988,316.5889,268.1736,91.9089,-9.938e-05,-1.279e-05,0.0,0 STARLINK-5274,1 55395U 23014E   24128.52115400 -.00001279  00000-0 -99380-4 0  9996,2 55395  69.9988 316.5889 0002915 268.1736  91.9089 14.98333182 70586,6950.183,96.107,574.074,570.022,0.0
55395.0,STARLINK-5274,PAYLOAD,2024-05-07 14:06:35,14.98331885,0.0003053,69.9991,316.4202,265.3047,94.7763,-8.1746e-05,-1.068e-05,0.0,0 STARLINK-5274,1 55395U 23014E   24128.58791344 -.00001068  00000-0 -81746-4 0  9992,2 55395  69.9991 316.4202 0003053 265.3047  94.7763 14.98331885 71530,6950.187,96.107,574.174,569.93,0.0
55395.0,STARLINK-5274,PAYLOAD,2024-05-07 22:07:15,14.98333299,0.0003105,69.9987,315.5783,266.8549,93.2255,-8.3738e-05,-1.092e-05,0.0,0 STARLINK-5274,1 55395U 23014E   24128.92171183 -.00001092  00000-0 -83738-4 0  9993,2 55395  69.9987 315.5783 0003105 266.8549  93.2255 14.98333299 71586,6950.183,96.107,574.206,569.89,0.0
55395.0,STARLINK-5274,PAYLOAD,2024-05-08 12:32:28,14.9833026,0.0003173,69.9984,314.0634,268.03,92.0496,1.1262e-05,4.1e-07,0.0,0 STARLINK-5274,1 55395U 23014E   24129.52255098  .00000041  00000-0  11262-4 0  9992,2 55395  69.9984 314.0634 0003173 268.0300  92.0496 14.98330260 70731,6950.192,96.107,574.262,569.852,0.0
55395.0,STARLINK-5274,PAYLOAD,2024-05-08 14:08:36,14.9833017,0.0003172,69.9984,313.895,268.0338,92.0458,8.4627e-06,8e-08,0.0,0 STARLINK-5274,1 55395U 23014E   24129.58931113  .00000008  00000-0  84627-5 0  9996,2 55395  69.9984 313.8950 0003172 268.0338  92.0458 14.98330170 71682,6950.192,96.107,574.262,569.853,0.0
55395.0,STARLINK-5274,PAYLOAD,2024-05-08 22:09:16,14.98332731,0.0003153,69.9986,313.0536,268.0125,92.0673,3.3383e-05,3.05e-06,0.0,0 STARLINK-5274,1 55395U 23014E   24129.92310851  .00000305  00000-0  33383-4 0  9996,2 55395  69.9986 313.0536 0003153 268.0125  92.0673 14.98332731 71739,6950.184,96.107,574.241,569.858,0.0
55395.0,STARLINK-5274,PAYLOAD,2024-05-09 12:34:28,14.98332023,0.0003227,69.9985,311.5386,267.6259,92.453,0.00013951,1.572e-05,0.0,0 STARLINK-5274,1 55395U 23014E   24130.52394671  .00001572  00000-0  13951-3 0  9991,2 55395  69.9985 311.5386 0003227 267.6259  92.4530 14.98332023 70884,6950.187,96.107,574.294,569.809,0.0
55395.0,STARLINK-5274,PAYLOAD,2024-05-09 14:10:37,14.98332725,0.0003226,69.9985,311.3703,267.6036,92.4754,0.00014568,1.646e-05,0.0,0 STARLINK-5274,1 55395U 23014E   24130.59070619  .00001646  00000-0  14568-3 0  9998,2 55395  69.9985 311.3703 0003226 267.6036  92.4754 14.98332725 71830,6950.184,96.107,574.292,569.807,0.0
55395.0,STARLINK-5274,PAYLOAD,2024-05-09 22:11:16,14.98340745,0.0003236,69.9986,310.5286,267.8998,92.179,0.00020342,2.336e-05,0.0,0 STARLINK-5274,1 55395U 23014E   24130.92450033  .00002336  00000-0  20342-3 0  9991,2 55395  69.9986 310.5286 0003236 267.8998  92.1790 14.98340745 71881,6950.16,96.106,574.274,569.776,0.0
55395.0,STARLINK-5274,PAYLOAD,2024-05-10 12:36:29,14.98335903,0.000313,69.9989,309.0136,268.2962,91.7838,0.00011133,1.236e-05,0.0,0 STARLINK-5274,1 55395U 23014E   24131.52534472  .00001236  00000-0  11133-3 0  9994,2 55395  69.9989 309.0136 0003130 268.2962  91.7838 14.98335903 71035,6950.175,96.107,574.215,569.864,0.0
55395.0,STARLINK-5274,PAYLOAD,2024-05-10 14:12:37,14.9833606,0.000313,69.9989,308.8452,268.2969,91.7831,0.00011096,1.231e-05,0.0,0 STARLINK-5274,1 55395U 23014E   24131.59210444  .00001231  00000-0  11096-3 0  9994,2 55395  69.9989 308.8452 0003130 268.2969  91.7831 14.98336060 71982,6950.174,96.107,574.215,569.864,0.0
55395.0,STARLINK-5274,PAYLOAD,2024-05-10 22:13:17,14.9834225,0.0003016,69.9992,308.0044,266.3104,93.771,0.00017317,1.974e-05,0.0,0 STARLINK-5274,1 55395U 23014E   24131.92589784  .00001974  00000-0  17317-3 0  9993,2 55395  69.9992 308.0044 0003016 266.3104  93.7710 14.98342250 72031,6950.155,96.106,574.116,569.924,0.0
55395.0,STARLINK-5274,PAYLOAD,2024-05-11 12:38:29,14.9835837,0.000299,70.0007,306.4892,265.2889,94.7929,0.00037575,4.396e-05,0.0,0 STARLINK-5274,1 55395U 23014E   24132.52672569  .00004396  00000-0  37575-3 0  9993,2 55395  70.0007 306.4892 0002990 265.2889  94.7929 14.98358370 71180,6950.105,96.105,574.048,569.892,0.0
55395.0,STARLINK-5274,PAYLOAD,2024-05-11 20:39:09,14.98355084,0.0002899,70.001,305.6458,268.5994,91.4833,0.00018466,2.112e-05,0.0,0 STARLINK-5274,1 55395U 23014E   24132.86052373  .00002112  00000-0  18466-3 0  9997,2 55395  70.0010 305.6458 0002899 268.5994  91.4833 14.98355084 72171,6950.115,96.105,573.995,569.965,0.0
55395.0,STARLINK-5274,PAYLOAD,2024-05-12 04:39:51,14.9827296,0.0002208,70.0018,304.8057,271.7518,88.3388,-0.0029154,-0.00034655,0.0,0 STARLINK-5274,1 55395U 23014E   24133.19434789 -.00034655  00000-0 -29154-2 0  9993,2 55395  70.0018 304.8057 0002208 271.7518  88.3388 14.98272960 71289,6950.369,96.111,573.769,570.7,0.0
55395.0,STARLINK-5274,PAYLOAD,2024-05-12 12:40:33,14.98227575,0.0003112,70.0019,303.9644,265.3149,94.7654,-0.0032803,-0.00038914,0.0,0 STARLINK-5274,1 55395U 23014E   24133.52816940 -.00038914  00000-0 -32803-2 0  9990,2 55395  70.0019 303.9644 0003112 265.3149  94.7654 14.98227575 71331,6950.51,96.114,574.538,570.212,0.0
55395.0,STARLINK-5274,PAYLOAD,2024-05-12 14:16:42,14.98227556,0.0002889,70.0018,303.796,266.8612,93.2217,-0.0027568,-0.00032747,0.0,0 STARLINK-5274,1 55395U 23014E   24133.59493475 -.00032747  00000-0 -27568-2 0  9991,2 55395  70.0018 303.7960 0002889 266.8612  93.2217 14.98227556 72283,6950.51,96.114,574.383,570.367,0.0
55395.0,STARLINK-5274,PAYLOAD,2024-05-12 20:41:14,14.98283452,0.0002672,70.0016,303.1223,266.6841,93.4012,0.0014792,0.00017579,0.0,0 STARLINK-5274,1 55395U 23014E   24133.86197754  .00017579  00000-0  14792-2 0  9991,2 55395  70.0016 303.1223 0002672 266.6841  93.4012 14.98283452 71381,6950.337,96.11,574.059,570.345,0.0
